[{"OBJECT_NAME":"FLOCK 4G-34","OBJECT_ID":"2025-009AT","EPOCH":"2026-03-09T17:34:06.952224","MEAN_MOTION":15.27131464,"ECCENTRICITY":6.743e-5,"INCLINATION":97.4004,"RA_OF_ASC_NODE":151.0149,"ARG_OF_PERICENTER":348.828,"MEAN_ANOMALY":11.2944,"EPHEMERIS_TYPE":0,"CLASSIFICATION_TYPE":"U","NORAD_CAT_ID":62650,"ELEMENT_SET_NO":999,"REV_AT_EPOCH":6372,"BSTAR":0.00049338357,"MEAN_MOTION_DOT":0.00013063,"MEAN_MOTION_DDOT":0},{"OBJECT_NAME":"OBJECT B","OBJECT_ID":"2026-023B","EPOCH":"2026-03-09T17:17:10.012128","MEAN_MOTION":15.23001134,"ECCENTRICITY":0.00195537,"INCLINATION":96.6353,"RA_OF_ASC_NODE":141.6642,"ARG_OF_PERICENTER":132.0881,"MEAN_ANOMALY":228.2024,"EPHEMERIS_TYPE":0,"CLASSIFICATION_TYPE":"U","NORAD_CAT_ID":67675,"ELEMENT_SET_NO":999,"REV_AT_EPOCH":486,"BSTAR":0.00052794729,"MEAN_MOTION_DOT":0.0001243,"MEAN_MOTION_DDOT":0}]
